STARLINK-35523          
1 65910U 25225A   25310.70018567  .00084860  00000+0  15129-2 0  9997
2 65910  53.1604  18.6774 0001090  96.8568 263.2565 15.49392342  5553
STARLINK-35160          
1 65911U 25225B   25310.76434709  .00074246  00000+0  13281-2 0  9998
2 65911  53.1601  18.3671 0001174  88.1153 271.9990 15.49357670  5565
STARLINK-35508          
1 65912U 25225C   25310.69948330  .00060860  00000+0  10933-2 0  9999
2 65912  53.1604  18.6720 0001174  73.4639 286.6499 15.49321178  5553
STARLINK-35472          
1 65913U 25225D   25310.69915284  .00079075  00000+0  14132-2 0  9995
2 65913  53.1606  18.6702 0001140  92.0391 268.0749 15.49355562  5557
STARLINK-35524          
1 65914U 25225E   25310.69881043  .00069371  00000+0  12425-2 0  9992
2 65914  53.1602  18.6680 0001246  87.4542 272.6609 15.49349870  5553
STARLINK-35539          
1 65915U 25225F   25310.70639826  .00072010  00000+0  17910-2 0  9993
2 65915  53.1604  19.4375 0001107  85.5731 274.5400 15.39659527  5542
STARLINK-35521          
1 65916U 25225G   25310.69813560  .00075809  00000+0  13564-2 0  9991
2 65916  53.1605  18.6625 0001166  50.1857 309.9255 15.49341226  5552
STARLINK-35478          
1 65917U 25225H   25310.76194811  .00058543  00000+0  10521-2 0  9997
2 65917  53.1604  18.3494 0001633  62.8872 297.2303 15.49326936  5564
STARLINK-35516          
1 65918U 25225J   25310.69777572  .00062603  00000+0  11226-2 0  9996
2 65918  53.1605  18.6606 0001205  87.6964 272.4183 15.49361274  5550
STARLINK-35519          
1 65919U 25225K   25310.76160486  .00053018  00000+0  95425-3 0  9999
2 65919  53.1601  18.3477 0001631  64.5520 295.5658 15.49326526  5560
STARLINK-33902          
1 65920U 25225L   25310.63224257  .00081779  00000+0  14611-2 0  9996
2 65920  53.1604  18.9612 0001161  87.5975 272.5167 15.49348060  5544
STARLINK-35530          
1 65921U 25225M   25310.76092242  .00088892  00000+0  15869-2 0  9997
2 65921  53.1601  18.3426 0002868  60.4667 299.6628 15.49329485  5566
